[{"OBJECT_NAME":"STARLINK-4126","OBJECT_ID":"2022-062AP","EPOCH":"2026-03-09T06:00:48.406464","MEAN_MOTION":15.08814909,"ECCENTRICITY":0.0001258,"INCLINATION":53.2186,"RA_OF_ASC_NODE":26.0897,"ARG_OF_PERICENTER":71.3014,"MEAN_ANOMALY":288.8114,"EPHEMERIS_TYPE":0,"CLASSIFICATION_TYPE":"U","NORAD_CAT_ID":52867,"ELEMENT_SET_NO":999,"REV_AT_EPOCH":20586,"BSTAR":0.00014609846,"MEAN_MOTION_DOT":2.037e-5,"MEAN_MOTION_DDOT":0},{"OBJECT_NAME":"ARIANE 6 R\/B","OBJECT_ID":"2024-128E","EPOCH":"2026-03-09T18:39:06.277536","MEAN_MOTION":15.00137067,"ECCENTRICITY":0.00536237,"INCLINATION":62.0121,"RA_OF_ASC_NODE":216.5937,"ARG_OF_PERICENTER":115.5687,"MEAN_ANOMALY":245.096,"EPHEMERIS_TYPE":0,"CLASSIFICATION_TYPE":"U","NORAD_CAT_ID":60239,"ELEMENT_SET_NO":999,"REV_AT_EPOCH":9111,"BSTAR":0.00020908474,"MEAN_MOTION_DOT":2.489e-5,"MEAN_MOTION_DDOT":0}]
